NORAD_CAT_ID,OBJECT_NAME,OBJECT_TYPE,EPOCH,MEAN_MOTION,ECCENTRICITY,INCLINATION,RA_OF_ASC_NODE,ARG_OF_PERICENTER,MEAN_ANOMALY,BSTAR,MEAN_MOTION_DOT,MEAN_MOTION_DDOT,TLE_LINE0,TLE_LINE1,TLE_LINE2,SEMIMAJOR_AXIS,PERIOD,APOGEE,PERIGEE,DECAYED
53828.0,STARLINK-4760,PAYLOAD,2023-03-26 09:07:20,15.08838896,0.0001293,53.2169,109.2352,104.3878,255.7258,0.0003269,4.918e-05,0.0,0 STARLINK-4760,1 53828U 22114L   23085.38009653  .00004918  00000-0  32690-3 0  9993,2 53828  53.2169 109.2352 0001293 104.3878 255.7258 15.08838896 29351,6917.884,95.438,540.643,538.854,0.0
53828.0,STARLINK-4760,PAYLOAD,2023-03-26 18:39:39,15.08844335,0.000131,53.2156,107.4501,100.2293,259.8847,0.0006955,0.000108,0.0,0 STARLINK-4760,1 53828U 22114L   23085.77754083  .00010800  00000-0  69550-3 0  9992,2 53828  53.2156 107.4501 0001310 100.2293 259.8847 15.08844335 29959,6917.867,95.437,540.638,538.826,0.0
53828.0,STARLINK-4760,PAYLOAD,2023-03-27 10:33:30,15.08867089,0.00013,53.2154,104.4762,100.5997,259.5142,0.00090965,0.00014229,0.0,0 STARLINK-4760,1 53828U 22114L   23086.43993219  .00014229  00000-0  90965-3 0  9995,2 53828  53.2154 104.4762 0001300 100.5997 259.5142 15.08867089 29514,6917.798,95.436,540.562,538.763,0.0
53828.0,STARLINK-4760,PAYLOAD,2023-03-27 18:30:25,15.08851894,0.0001352,53.2159,102.9895,94.2913,265.8233,0.0002994,4.482e-05,0.0,0 STARLINK-4760,1 53828U 22114L   23086.77113351  .00004482  00000-0  29940-3 0  9998,2 53828  53.2159 102.9895 0001352  94.2913 265.8233 15.08851894 29566,6917.844,95.437,540.644,538.774,0.0
53828.0,STARLINK-4760,PAYLOAD,2023-03-28 10:24:17,15.08854719,0.000139,53.2168,100.0167,90.0407,270.0744,0.00036281,5.493e-05,0.0,0 STARLINK-4760,1 53828U 22114L   23087.43353056  .00005493  00000-0  36281-3 0  9999,2 53828  53.2168 100.0167 0001390  90.0407 270.0744 15.08854719 30208,6917.835,95.437,540.662,538.739,0.0
53828.0,STARLINK-4760,PAYLOAD,2023-03-28 18:21:12,15.08858476,0.0001405,53.2168,98.5303,87.1616,272.9537,0.00047781,7.328e-05,0.0,0 STARLINK-4760,1 53828U 22114L   23087.76472778  .00007328  00000-0  47781-3 0  9994,2 53828  53.2168  98.5303 0001405  87.1616 272.9537 15.08858476 30257,6917.824,95.436,540.661,538.717,0.0
53828.0,STARLINK-4760,PAYLOAD,2023-03-29 00:42:45,15.08846154,0.0001522,53.2158,97.3404,86.0255,274.0912,0.00019796,2.864e-05,0.0,0 STARLINK-4760,1 53828U 22114L   23088.02969164  .00002864  00000-0  19796-3 0  9999,2 53828  53.2158  97.3404 0001522  86.0255 274.0912 15.08846154 29755,6917.862,95.437,540.779,538.674,0.0
53828.0,STARLINK-4760,PAYLOAD,2023-03-29 05:28:54,15.0884674,0.0001373,53.2159,96.4478,90.905,269.21,9.8828e-05,1.286e-05,0.0,0 STARLINK-4760,1 53828U 22114L   23088.22841079  .00001286  00000-0  98828-4 0  9996,2 53828  53.2159  96.4478 0001373  90.9050 269.2100 15.08846740 30329,6917.86,95.437,540.675,538.775,0.0
53828.0,STARLINK-4760,PAYLOAD,2023-03-30 06:55:04,15.08848181,0.0001208,53.217,91.6912,94.9533,265.1597,0.0001821,2.612e-05,0.0,0 STARLINK-4760,1 53828U 22114L   23089.28824854  .00002612  00000-0  18210-3 0  9995,2 53828  53.2170  91.6912 0001208  94.9533 265.1597 15.08848181 29941,6917.855,95.437,540.556,538.885,0.0
53828.0,STARLINK-4760,PAYLOAD,2023-03-30 10:05:50,15.08847964,0.0001203,53.2158,91.095,96.5956,263.5173,0.0001477,2.064e-05,0.0,0 STARLINK-4760,1 53828U 22114L   23089.42072782  .00002064  00000-0  14770-3 0  9994,2 53828  53.2158  91.0950 0001203  96.5956 263.5173 15.08847964 30509,6917.856,95.437,540.553,538.889,0.0
53828.0,STARLINK-4760,PAYLOAD,2023-03-31 06:45:52,15.08841095,0.0001096,53.2147,87.2291,84.7749,275.3368,0.00010937,1.453e-05,0.0,0 STARLINK-4760,1 53828U 22114L   23090.28185323  .00001453  00000-0  10937-3 0  9998,2 53828  53.2147  87.2291 0001096  84.7749 275.3368 15.08841095 30091,6917.877,95.437,540.5,538.984,0.0
53828.0,STARLINK-4760,PAYLOAD,2023-04-01 06:36:39,15.08840547,0.0001028,53.2167,82.7704,91.7703,268.3407,0.00011995,1.622e-05,0.0,0 STARLINK-4760,1 53828U 22114L   23091.27545506  .00001622  00000-0  11995-3 0  9994,2 53828  53.2167  82.7704 0001028  91.7703 268.3407 15.08840547 30788,6917.879,95.438,540.455,539.033,0.0
53828.0,STARLINK-4760,PAYLOAD,2023-04-01 16:08:58,15.08839766,0.0001018,53.2167,80.9862,90.915,269.1959,0.00012225,1.658e-05,0.0,0 STARLINK-4760,1 53828U 22114L   23091.67289618  .00001658  00000-0  12225-3 0  9993,2 53828  53.2167  80.9862 0001018  90.9150 269.1959 15.08839766 30309,6917.881,95.438,540.45,539.042,0.0
53828.0,STARLINK-4760,PAYLOAD,2023-04-02 08:02:49,15.08848462,0.0001108,53.2173,78.0122,92.7152,267.3967,0.0002082,3.028e-05,0.0,0 STARLINK-4760,1 53828U 22114L   23092.33529291  .00003028  00000-0  20820-3 0  9994,2 53828  53.2173  78.0122 0001108  92.7152 267.3967 15.08848462 30947,6917.855,95.437,540.486,538.953,0.0
53828.0,STARLINK-4760,PAYLOAD,2023-04-02 15:59:45,15.0884345,9.39e-05,53.217,76.5264,89.1647,270.9453,0.0001387,1.921e-05,0.0,0 STARLINK-4760,1 53828U 22114L   23092.66649426  .00001921  00000-0  13870-3 0  9990,2 53828  53.2170  76.5264 0000939  89.1647 270.9453 15.08843450 30991,6917.87,95.437,540.384,539.085,0.0
53828.0,STARLINK-4760,PAYLOAD,2023-04-03 04:42:50,15.08841892,0.0001291,53.2176,74.1456,82.7665,277.3474,0.0001048,1.38e-05,0.0,0 STARLINK-4760,1 53828U 22114L   23093.19641727  .00001380  00000-0  10480-3 0  9998,2 53828  53.2176  74.1456 0001291  82.7665 277.3474 15.08841892 30537,6917.875,95.437,540.633,538.847,0.0
53828.0,STARLINK-4760,PAYLOAD,2023-04-03 06:18:13,15.08843067,0.0001227,53.2179,73.8483,81.625,278.4882,0.000102,1.336e-05,0.0,0 STARLINK-4760,1 53828U 22114L   23093.26265629  .00001336  00000-0  10200-3 0  9990,2 53828  53.2179  73.8483 0001227  81.6250 278.4882 15.08843067 31085,6917.871,95.437,540.585,538.887,0.0
53828.0,STARLINK-4760,PAYLOAD,2023-04-03 15:50:32,15.08841872,0.0001276,53.2183,72.0665,84.852,275.2617,0.0001139,1.525e-05,0.0,0 STARLINK-4760,1 53828U 22114L   23093.66009767  .00001525  00000-0  11390-3 0  9994,2 53828  53.2183  72.0665 0001276  84.8520 275.2617 15.08841872 31142,6917.875,95.437,540.622,538.857,0.0
53828.0,STARLINK-4760,PAYLOAD,2023-04-04 07:44:23,15.0884615,0.0001,53.2163,69.0904,95.4784,264.6322,6.9497e-05,8.19e-06,0.0,0 STARLINK-4760,1 53828U 22114L   23094.32249426  .00000819  00000-0  69497-4 0  9993,2 53828  53.2163  69.0904 0001000  95.4784 264.6322 15.08846150 30707,6917.862,95.437,540.418,539.035,0.0
53828.0,STARLINK-4760,PAYLOAD,2023-04-04 22:02:52,15.08833927,8.12e-05,53.219,66.4164,87.0246,273.0839,2.594e-05,1.25e-06,0.0,0 STARLINK-4760,1 53828U 22114L   23094.91866218  .00000125  00000-0  25940-4 0  9997,2 53828  53.2190  66.4164 0000812  87.0246 273.0839 15.08833927 31331,6917.899,95.438,540.326,539.202,0.0
53828.0,STARLINK-4760,PAYLOAD,2023-04-05 04:24:24,15.08839901,0.0001076,53.2165,65.2246,92.8162,267.2954,7.1433e-05,8.49e-06,0.0,0 STARLINK-4760,1 53828U 22114L   23095.18362008  .00000849  00000-0  71433-4 0  9996,2 53828  53.2165  65.2246 0001076  92.8162 267.2954 15.08839901 30830,6917.881,95.438,540.49,539.001,0.0
53828.0,STARLINK-4760,PAYLOAD,2023-04-05 07:35:11,15.08840455,0.0001192,53.2173,64.6302,92.7321,267.3807,8.8491e-05,1.121e-05,0.0,0 STARLINK-4760,1 53828U 22114L   23095.31609999  .00001121  00000-0  88491-4 0  9990,2 53828  53.2173  64.6302 0001192  92.7321 267.3807 15.08840455 31396,6917.879,95.438,540.569,538.919,0.0
53828.0,STARLINK-4760,PAYLOAD,2023-04-06 07:25:57,15.0885193,0.0001119,53.2173,60.1691,99.6703,260.4415,4.5507e-05,4.37e-06,0.0,0 STARLINK-4760,1 53828U 22114L   23096.30969424  .00000437  00000-0  45507-4 0  9992,2 53828  53.2173  60.1691 0001119  99.6703 260.4415 15.08851930 31004,6917.844,95.437,540.483,538.935,0.0
53828.0,STARLINK-4760,PAYLOAD,2023-04-07 05:41:22,15.08841142,9.95e-05,53.2184,56.0088,97.3204,262.7901,0.00011872,1.602e-05,0.0,0 STARLINK-4760,1 53828U 22114L   23097.23706182  .00001602  00000-0  11872-3 0  9997,2 53828  53.2184  56.0088 0000995  97.3204 262.7901 15.08841142 31146,6917.877,95.437,540.43,539.054,0.0
53828.0,STARLINK-4760,PAYLOAD,2023-04-07 07:16:45,15.08843166,9.75e-05,53.2179,55.7103,100.1207,259.9895,0.00014076,1.953e-05,0.0,0 STARLINK-4760,1 53828U 22114L   23097.30330044  .00001953  00000-0  14076-3 0  9993,2 53828  53.2179  55.7103 0000975 100.1207 259.9895 15.08843166 31696,6917.871,95.437,540.41,539.061,0.0
53828.0,STARLINK-4760,PAYLOAD,2023-04-08 05:32:08,15.08849791,0.0001087,53.2184,51.5472,96.6201,263.4915,0.00012891,1.765e-05,0.0,0 STARLINK-4760,1 53828U 22114L   23098.23065667  .00001765  00000-0  12891-3 0  9996,2 53828  53.2184  51.5472 0001087  96.6201 263.4915 15.08849791 31832,6917.85,95.437,540.467,538.963,0.0
53828.0,STARLINK-4760,PAYLOAD,2023-04-09 05:22:56,15.08838579,0.0001149,53.2191,47.0866,90.5228,269.5896,1.4178e-05,-6.2e-07,0.0,0 STARLINK-4760,1 53828U 22114L   23099.22426393 -.00000062  00000-0  14178-4 0  9994,2 53828  53.2191  47.0866 0001149  90.5228 269.5896 15.08838579 31442,6917.885,95.438,540.545,538.955,0.0
53828.0,STARLINK-4760,PAYLOAD,2023-04-09 06:58:19,15.088386,0.0001147,53.2191,46.7892,90.3864,269.726,1.2917e-05,-8.2e-07,0.0,0 STARLINK-4760,1 53828U 22114L   23099.29050394 -.00000082  00000-0  12917-4 0  9996,2 53828  53.2191  46.7892 0001147  90.3864 269.7260 15.08838600 31991,6917.885,95.438,540.543,538.956,0.0
53828.0,STARLINK-4760,PAYLOAD,2023-04-10 05:13:43,15.08841667,0.0001055,53.218,42.6258,91.8244,268.2869,1.1974e-05,-9.7e-07,0.0,0 STARLINK-4760,1 53828U 22114L   23100.21786494 -.00000097  00000-0  11974-4 0  9996,2 53828  53.2180  42.6258 0001055  91.8244 268.2869 15.08841667 32139,6917.875,95.437,540.47,539.01,0.0
53828.0,STARLINK-4760,PAYLOAD,2023-04-11 05:04:29,15.08857129,0.0001278,53.2179,38.1657,91.8409,268.2729,0.00034698,5.241e-05,0.0,0 STARLINK-4760,1 53828U 22114L   23101.21145708  .00005241  00000-0  34698-3 0  9996,2 53828  53.2179  38.1657 0001278  91.8409 268.2729 15.08857129 31741,6917.828,95.436,540.577,538.809,0.0
